ORBCOMM FM24            
1 25478U 98053D   24244.61022324  .00004418  00000+0  15463-2 0  9994
2 25478  45.0060 200.4420 0001867 281.6649  78.3989 14.36254954356060
ORBCOMM FM25            
1 25479U 98053E   24244.57787987  .00004121  00000+0  14461-2 0  9991
2 25479  45.0059 198.8457 0004103 260.2069  99.8315 14.36237756356077
ORBCOMM FM26            
1 25480U 98053F   24244.56173271  .00003713  00000+0  13247-2 0  9994
2 25480  45.0055 193.5519 0006588 269.9532  90.0560 14.35588443356005
ORBCOMM FM27            
1 25481U 98053G   24245.12348265  .00004931  00000+0  17209-2 0  9990
2 25481  45.0042 196.5259 0001905 332.9456  27.1292 14.36230996356124
ORBCOMM FM28            
1 25482U 98053H   24245.14659159  .00003859  00000+0  13468-2 0  9991
2 25482  45.0051 134.5219 0003975 301.2460  58.7998 14.36623648356938
ORBCOMM FM32            
1 25982U 99065C   24244.74803922  .00003611  00000+0  13121-2 0  9996
2 25982  45.0174  26.5337 0004079  23.3603 336.7429 14.34725397293005
